{
 "type": "Feature",
 "properties": {
  "id": "curved-facade",
  "why": "Arc facade: over-regularisation destroys it, so it guards the regularise candidate.",
  "source": "synthetic — truth is the generating polygon, exact by construction",
  "areaM2": 985.1175
 },
 "geometry": {
  "type": "Polygon",
  "coordinates": [
   [
    [
     0,
     0
    ],
    [
     30,
     0
    ],
    [
     40.912073,
     0.899708
    ],
    [
     40.448636,
     4.089301
    ],
    [
     39.594123,
     7.197046
    ],
    [
     38.361666,
     10.175187
    ],
    [
     36.770204,
     12.977958
    ],
    [
     34.844193,
     15.562287
    ],
    [
     32.613231,
     17.888461
    ],
    [
     30.111602,
     19.920732
    ],
    [
     27.377749,
     21.62787
    ],
    [
     24.453683,
     22.983642
    ],
    [
     21.38434,
     23.967211
    ],
    [
     18.216887,
     24.563465
    ],
    [
     15,
     24.763239
    ],
    [
     11.783113,
     24.563465
    ],
    [
     8.61566,
     23.967211
    ],
    [
     5.546317,
     22.983642
    ],
    [
     2.622251,
     21.62787
    ],
    [
     -0.111602,
     19.920732
    ],
    [
     -2.613231,
     17.888461
    ],
    [
     -4.844193,
     15.562287
    ],
    [
     -6.770204,
     12.977958
    ],
    [
     -8.361666,
     10.175187
    ],
    [
     -9.594123,
     7.197046
    ],
    [
     -10.448636,
     4.089301
    ],
    [
     -10.912073,
     0.899708
    ],
    [
     0,
     0
    ]
   ]
  ]
 }
}